{
  "type": "FeatureCollection",
  "features": [
    {
      "type": "Feature",
      "properties": {
        "norad_id": 41556,
        "name": "ZIYUAN 3-2 (ZY 3-2)",
        "group": "resource",
        "lat": 24.620220368736547,
        "lon": 55.405655044398564,
        "alt_km": 506.0779982742906,
        "timestamp": "2025-12-10T14:53:36.779914+00:00",
        "meta_object_name": "ZIYUAN 3-2 (ZY 3-2)",
        "meta_object_id": "2016-033A",
        "meta_epoch": "2025-12-10T06:53:32.346816",
        "meta_mean_motion": 15.21445063,
        "meta_eccentricity": 0.00124268,
        "meta_inclination": 97.4041,
        "meta_ra_of_asc_node": 58.4942,
        "meta_arg_of_pericenter": 258.6129,
        "meta_mean_anomaly": 101.3711,
        "meta_ephemeris_type": 0,
        "meta_classification_type": "U",
        "meta_norad_cat_id": 41556,
        "meta_element_set_no": 999,
        "meta_rev_at_epoch": 52926,
        "meta_bstar": 0.00051328555,
        "meta_mean_motion_dot": 0.00011493,
        "meta_mean_motion_ddot": 0,
        "tle_line1": "1 41556U 16033A   25344.28717994  .00011493  00000+0  51329-3 0  9999",
        "tle_line2": "2 41556  97.4041  58.4942 0012426 258.6129 101.3711 15.21445063529267"
      },
      "geometry": {
        "type": "Point",
        "coordinates": [
          55.405655044398564,
          24.620220368736547
        ]
      }
    },
    {
      "type": "Feature",
      "properties": {
        "norad_id": 41599,
        "name": "CARTOSAT-2C",
        "group": "resource",
        "lat": -14.621849628170411,
        "lon": 43.855737328426095,
        "alt_km": 512.292014558313,
        "timestamp": "2025-12-10T14:53:36.779923+00:00",
        "meta_object_name": "CARTOSAT-2C",
        "meta_object_id": "2016-040A",
        "meta_epoch": "2025-12-10T07:03:16.754688",
        "meta_mean_motion": 15.19253978,
        "meta_eccentricity": 0.00108924,
        "meta_inclination": 97.4766,
        "meta_ra_of_asc_node": 41.569,
        "meta_arg_of_pericenter": 72.2635,
        "meta_mean_anomaly": 287.9788,
        "meta_ephemeris_type": 0,
        "meta_classification_type": "U",
        "meta_norad_cat_id": 41599,
        "meta_element_set_no": 999,
        "meta_rev_at_epoch": 52503,
        "meta_bstar": 0.00026194832,
        "meta_mean_motion_dot": 5.461e-05,
        "meta_mean_motion_ddot": 0,
        "tle_line1": "1 41599U 16040A   25344.29394392  .00005461  00000+0  26195-3 0  9999",
        "tle_line2": "2 41599  97.4766  41.5690 0010892  72.2635 287.9788 15.19253978525033"
      },
      "geometry": {
        "type": "Point",
        "coordinates": [
          43.855737328426095,
          -14.621849628170411
        ]
      }
    },
    {
      "type": "Feature",
      "properties": {
        "norad_id": 41601,
        "name": "SKYSAT-C1",
        "group": "resource",
        "lat": -59.74837545210282,
        "lon": 33.88402620809173,
        "alt_km": 475.2086023909351,
        "timestamp": "2025-12-10T14:53:36.779932+00:00",
        "meta_object_name": "SKYSAT-C1",
        "meta_object_id": "2016-040C",
        "meta_epoch": "2025-12-10T01:03:12.196224",
        "meta_mean_motion": 15.32510525,
        "meta_eccentricity": 0.00026802,
        "meta_inclination": 96.9824,
        "meta_ra_of_asc_node": 21.2092,
        "meta_arg_of_pericenter": 23.5908,
        "meta_mean_anomaly": 336.5457,
        "meta_ephemeris_type": 0,
        "meta_classification_type": "U",
        "meta_norad_cat_id": 41601,
        "meta_element_set_no": 999,
        "meta_rev_at_epoch": 52886,
        "meta_bstar": 0.00041563234,
        "meta_mean_motion_dot": 0.00012984,
        "meta_mean_motion_ddot": 0,
        "tle_line1": "1 41601U 16040C   25344.04389116  .00012984  00000+0  41563-3 0  9998",
        "tle_line2": "2 41601  96.9824  21.2092 0002680  23.5908 336.5457 15.32510525528862"
      },
      "geometry": {
        "type": "Point",
        "coordinates": [
          33.88402620809173,
          -59.74837545210282
        ]
      }
    },
    {
      "type": "Feature",
      "properties": {
        "norad_id": 41603,
        "name": "LAPAN-A3",
        "group": "resource",
        "lat": 82.7490108172923,
        "lon": -117.45216596010802,
        "alt_km": 466.0145526039314,
        "timestamp": "2025-12-10T14:53:36.779941+00:00",
        "meta_object_name": "LAPAN-A3",
        "meta_object_id": "2016-040E",
        "meta_epoch": "2025-12-10T06:39:23.958432",
        "meta_mean_motion": 15.31519026,
        "meta_eccentricity": 0.00099434,
        "meta_inclination": 97.1433,
        "meta_ra_of_asc_node": 341.9229,
        "meta_arg_of_pericenter": 343.431,
        "meta_mean_anomaly": 16.6605,
        "meta_ephemeris_type": 0,
        "meta_classification_type": "U",
        "meta_norad_cat_id": 41603,
        "meta_element_set_no": 999,
        "meta_rev_at_epoch": 52588,
        "meta_bstar": 0.0001814253,
        "meta_mean_motion_dot": 5.455e-05,
        "meta_mean_motion_ddot": 0,
        "tle_line1": "1 41603U 16040E   25344.27736063  .00005455  00000+0  18143-3 0  9995",
        "tle_line2": "2 41603  97.1433 341.9229 0009943 343.4310  16.6605 15.31519026525881"
      },
      "geometry": {
        "type": "Point",
        "coordinates": [
          -117.45216596010802,
          82.7490108172923
        ]
      }
    },
    {
      "type": "Feature",
      "properties": {
        "norad_id": 41604,
        "name": "BIROS",
        "group": "resource",
        "lat": -14.531945832765357,
        "lon": -165.87505705647393,
        "alt_km": 309.0038999600238,
        "timestamp": "2025-12-10T14:53:36.779962+00:00",
        "meta_object_name": "BIROS",
        "meta_object_id": "2016-040F",
        "meta_epoch": "2025-12-10T01:58:59.670912",
        "meta_mean_motion": 15.88522659,
        "meta_eccentricity": 0.00031678,
        "meta_inclination": 97.0703,
        "meta_ra_of_asc_node": 15.4098,
        "meta_arg_of_pericenter": 156.5515,
        "meta_mean_anomaly": 203.5903,
        "meta_ephemeris_type": 0,
        "meta_classification_type": "U",
        "meta_norad_cat_id": 41604,
        "meta_element_set_no": 999,
        "meta_rev_at_epoch": 52830,
        "meta_bstar": 0.00072041907,
        "meta_mean_motion_dot": 0.00203476,
        "meta_mean_motion_ddot": 0,
        "tle_line1": "1 41604U 16040F   25344.08263508  .00203476  00000+0  72042-3 0  9995",
        "tle_line2": "2 41604  97.0703  15.4098 0003167 156.5515 203.5903 15.88522659528306"
      },
      "geometry": {
        "type": "Point",
        "coordinates": [
          -165.87505705647393,
          -14.531945832765357
        ]
      }
    },
    {
      "type": "Feature",
      "properties": {
        "norad_id": 41727,
        "name": "GAOFEN-3",
        "group": "resource",
        "lat": -8.687605832610092,
        "lon": 168.9445038559651,
        "alt_km": 755.8314504094778,
        "timestamp": "2025-12-10T14:53:36.779972+00:00",
        "meta_object_name": "GAOFEN-3",
        "meta_object_id": "2016-049A",
        "meta_epoch": "2025-12-10T07:21:40.772160",
        "meta_mean_motion": 14.42212677,
        "meta_eccentricity": 0.00014991,
        "meta_inclination": 98.4038,
        "meta_ra_of_asc_node": 349.9298,
        "meta_arg_of_pericenter": 64.1185,
        "meta_mean_anomaly": 296.016,
        "meta_ephemeris_type": 0,
        "meta_classification_type": "U",
        "meta_norad_cat_id": 41727,
        "meta_element_set_no": 999,
        "meta_rev_at_epoch": 49142,
        "meta_bstar": 6.4867596e-05,
        "meta_mean_motion_dot": 1.7e-06,
        "meta_mean_motion_ddot": 0,
        "tle_line1": "1 41727U 16049A   25344.30672190  .00000170  00000+0  64868-4 0  9990",
        "tle_line2": "2 41727  98.4038 349.9298 0001499  64.1185 296.0160 14.42212677491427"
      },
      "geometry": {
        "type": "Point",
        "coordinates": [
          168.9445038559651,
          -8.687605832610092
        ]
      }
    },
    {
      "type": "Feature",
      "properties": {
        "norad_id": 41771,
        "name": "SKYSAT-C4",
        "group": "resource",
        "lat": 18.35554724050473,
        "lon": -167.7736747876594,
        "alt_km": 439.4655671616574,
        "timestamp": "2025-12-10T14:53:36.779981+00:00",
        "meta_object_name": "SKYSAT-C4",
        "meta_object_id": "2016-058B",
        "meta_epoch": "2025-12-10T07:58:00.532704",
        "meta_mean_motion": 15.42137296,
        "meta_eccentricity": 0.00012634,
        "meta_inclination": 96.9376,
        "meta_ra_of_asc_node": 9.6363,
        "meta_arg_of_pericenter": 134.0964,
        "meta_mean_anomaly": 226.0388,
        "meta_ephemeris_type": 0,
        "meta_classification_type": "U",
        "meta_norad_cat_id": 41771,
        "meta_element_set_no": 999,
        "meta_rev_at_epoch": 51630,
        "meta_bstar": 0.0004835877,
        "meta_mean_motion_dot": 0.00020656,
        "meta_mean_motion_ddot": 0,
        "tle_line1": "1 41771U 16058B   25344.33195061  .00020656  00000+0  48359-3 0  9996",
        "tle_line2": "2 41771  96.9376   9.6363 0001263 134.0964 226.0388 15.42137296516302"
      },
      "geometry": {
        "type": "Point",
        "coordinates": [
          -167.7736747876594,
          18.35554724050473
        ]
      }
    }
  ]
}